MOLNIYA 1-91            
1 25485U 98054A   17345.35590389  .00000993  00000-0  21494-3 0  9996
2 25485  61.9410  89.2238 7487883 274.6884  11.8265  2.00584053140682
